start=new Date('2022-10-22T00:00:00.000Z').valueOf();
sats=[{"FILE":"3628413","MEAN_MOTION_DDOT":"0.0000000000000","CLASSIFICATION_TYPE":"U","EPOCH":"2022-10-21T19:27:23.747328","REF_FRAME":"TEME","GP_ID":"215842463","OBJECT_TYPE":"PAYLOAD","RA_OF_ASC_NODE":"45.2092","PERIOD":"95.592","MEAN_ELEMENT_THEORY":"SGP4","EPHEMERIS_TYPE":"0","RCS_SIZE":"LARGE","APOAPSIS":"548.185","DECAY_DATE":null,"ARG_OF_PERICENTER":"76.8278","OBJECT_NAME":"STARLINK-2434","BSTAR":"0.00019222000000","TLE_LINE1":"1 47842U 21018BH  22294.81069152  .00002583  00000-0  19222-3 0  9995","MEAN_ANOMALY":"283.2869","TIME_SYSTEM":"UTC","SEMIMAJOR_AXIS":"6925.340","PERIAPSIS":"546.224","MEAN_MOTION":"15.06402927","MEAN_MOTION_DOT":"0.00002583","TLE_LINE2":"2 47842  53.0554  45.2092 0001416  76.8278 283.2869 15.06402927 90385","CENTER_NAME":"EARTH","REV_AT_EPOCH":"9038","INCLINATION":"53.0554","ELEMENT_SET_NO":"999","NORAD_CAT_ID":"47842","SITE":"AFETR","ECCENTRICITY":"0.00014160","OBJECT_ID":"2021-018BH","COUNTRY_CODE":"US","LAUNCH_DATE":"2021-03-11"},{"MEAN_MOTION_DDOT":"0.0000000000000","EPOCH":"2022-10-21T14:01:38.480160","CLASSIFICATION_TYPE":"U","FILE":"3628413","OBJECT_TYPE":"PAYLOAD","RA_OF_ASC_NODE":"41.2342","GP_ID":"215843213","REF_FRAME":"TEME","APOAPSIS":"548.187","DECAY_DATE":null,"EPHEMERIS_TYPE":"0","RCS_SIZE":"LARGE","MEAN_ELEMENT_THEORY":"SGP4","PERIOD":"95.592","TLE_LINE1":"1 47843U 21018BJ  22294.58447315 -.00000946  00000-0 -44599-4 0  9990","MEAN_ANOMALY":"284.5373","BSTAR":"-0.00004459900000","OBJECT_NAME":"STARLINK-2435","ARG_OF_PERICENTER":"75.5769","MEAN_MOTION_DOT":"-0.00000946","SEMIMAJOR_AXIS":"6925.362","PERIAPSIS":"546.267","MEAN_MOTION":"15.06395550","TIME_SYSTEM":"UTC","REV_AT_EPOCH":"9038","CENTER_NAME":"EARTH","TLE_LINE2":"2 47843  53.0564  41.2342 0001386  75.5769 284.5373 15.06395550 90385","ELEMENT_SET_NO":"999","NORAD_CAT_ID":"47843","SITE":"AFETR","ECCENTRICITY":"0.00013860","INCLINATION":"53.0564","COUNTRY_CODE":"US","LAUNCH_DATE":"2021-03-11","OBJECT_ID":"2021-018BJ"},{"FILE":"3628413","MEAN_MOTION_DDOT":"0.0000000000000","EPOCH":"2022-10-21T15:35:11.284224","CLASSIFICATION_TYPE":"U","REF_FRAME":"TEME","RA_OF_ASC_NODE":"35.9400","OBJECT_TYPE":"PAYLOAD","GP_ID":"215841962","MEAN_ELEMENT_THEORY":"SGP4","PERIOD":"95.592","APOAPSIS":"548.211","DECAY_DATE":null,"EPHEMERIS_TYPE":"0","RCS_SIZE":"LARGE","OBJECT_NAME":"STARLINK-2446","ARG_OF_PERICENTER":"71.0750","TLE_LINE1":"1 47844U 21018BK  22294.64943616 -.00001061  00000-0 -52351-4 0  9997","MEAN_ANOMALY":"289.0395","BSTAR":"-0.00005235100000","SEMIMAJOR_AXIS":"6925.348","PERIAPSIS":"546.216","MEAN_MOTION":"15.06400080","TIME_SYSTEM":"UTC","MEAN_MOTION_DOT":"-0.00001061","CENTER_NAME":"EARTH","TLE_LINE2":"2 47844  53.0570  35.9400 0001440  71.0750 289.0395 15.06400080 90446","REV_AT_EPOCH":"9044","INCLINATION":"53.0570","ELEMENT_SET_NO":"999","NORAD_CAT_ID":"47844","SITE":"AFETR","ECCENTRICITY":"0.00014400","COUNTRY_CODE":"US","LAUNCH_DATE":"2021-03-11","OBJECT_ID":"2021-018BK"},{"COUNTRY_CODE":"US","LAUNCH_DATE":"2021-03-11","OBJECT_ID":"2021-018BL","INCLINATION":"53.0555","NORAD_CAT_ID":"47845","ELEMENT_SET_NO":"999","ECCENTRICITY":"0.00013050","SITE":"AFETR","CENTER_NAME":"EARTH","TLE_LINE2":"2 47845  53.0555  35.8481 0001305  70.0567 290.0563 15.06405236 90451","REV_AT_EPOCH":"9045","PERIAPSIS":"546.294","MEAN_MOTION":"15.06405236","SEMIMAJOR_AXIS":"6925.333","TIME_SYSTEM":"UTC","MEAN_MOTION_DOT":"-0.00000282","OBJECT_NAME":"STARLINK-2453","ARG_OF_PERICENTER":"70.0567","TLE_LINE1":"1 47845U 21018BL  22294.66786033 -.00000282  00000-0 -19123-7 0  9995","MEAN_ANOMALY":"290.0563","BSTAR":"-0.00000001912300","MEAN_ELEMENT_THEORY":"SGP4","PERIOD":"95.592","DECAY_DATE":null,"APOAPSIS":"548.101","RCS_SIZE":"LARGE","EPHEMERIS_TYPE":"0","REF_FRAME":"TEME","RA_OF_ASC_NODE":"35.8481","OBJECT_TYPE":"PAYLOAD","GP_ID":"215842211","FILE":"3628413","MEAN_MOTION_DDOT":"0.0000000000000","CLASSIFICATION_TYPE":"U","EPOCH":"2022-10-21T16:01:43.132512"},{"CENTER_NAME":"EARTH","TLE_LINE2":"2 47846  53.0559  35.2763 0001515  60.4378 299.6762 15.06401031 90522","REV_AT_EPOCH":"9052","PERIAPSIS":"546.161","SEMIMAJOR_AXIS":"6925.345","MEAN_MOTION":"15.06401031","TIME_SYSTEM":"UTC","MEAN_MOTION_DOT":"0.00002360","COUNTRY_CODE":"US","LAUNCH_DATE":"2021-03-11","OBJECT_ID":"2021-018BM","INCLINATION":"53.0559","NORAD_CAT_ID":"47846","ELEMENT_SET_NO":"999","SITE":"AFETR","ECCENTRICITY":"0.00015150","REF_FRAME":"TEME","OBJECT_TYPE":"PAYLOAD","RA_OF_ASC_NODE":"35.2763","GP_ID":"215842963","FILE":"3628413","MEAN_MOTION_DDOT":"0.0000000000000","CLASSIFICATION_TYPE":"U","EPOCH":"2022-10-21T19:06:08.160192","ARG_OF_PERICENTER":"60.4378","OBJECT_NAME":"STARLINK-2456","MEAN_ANOMALY":"299.6762","TLE_LINE1":"1 47846U 21018BM  22294.79592778  .00002360  00000-0  17726-3 0  9991","BSTAR":"0.00017726000000","MEAN_ELEMENT_THEORY":"SGP4","PERIOD":"95.592","APOAPSIS":"548.260","DECAY_DATE":null,"RCS_SIZE":"LARGE","EPHEMERIS_TYPE":"0"},{"MEAN_MOTION_DOT":"-0.00001957","TIME_SYSTEM":"UTC","MEAN_MOTION":"15.06408884","PERIAPSIS":"546.168","SEMIMAJOR_AXIS":"6925.321","REV_AT_EPOCH":"8980","TLE_LINE2":"2 47860  53.0547  65.8316 0001470 100.1058 260.0097 15.06408884 89800","CENTER_NAME":"EARTH","NORAD_CAT_ID":"47860","ELEMENT_SET_NO":"999","SITE":"AFETR","ECCENTRICITY":"0.00014700","INCLINATION":"53.0547","OBJECT_ID":"2021-021A","COUNTRY_CODE":"US","LAUNCH_DATE":"2021-03-14","MEAN_MOTION_DDOT":"0.0000000000000","CLASSIFICATION_TYPE":"U","EPOCH":"2022-10-21T16:03:01.562112","FILE":"3628413","GP_ID":"215841464","RA_OF_ASC_NODE":"65.8316","OBJECT_TYPE":"PAYLOAD","REF_FRAME":"TEME","EPHEMERIS_TYPE":"0","RCS_SIZE":"LARGE","DECAY_DATE":null,"APOAPSIS":"548.204","PERIOD":"95.592","MEAN_ELEMENT_THEORY":"SGP4","BSTAR":"-0.00011250000000","TLE_LINE1":"1 47860U 21021A   22294.66876808 -.00001957  00000-0 -11250-3 0  9995","MEAN_ANOMALY":"260.0097","ARG_OF_PERICENTER":"100.1058","OBJECT_NAME":"STARLINK-2258"},{"BSTAR":"-0.00000560830000","MEAN_ANOMALY":"294.9877","TLE_LINE1":"1 47861U 21021B   22294.75310006 -.00000365  00000-0 -56083-5 0  9996","OBJECT_NAME":"STARLINK-2280","ARG_OF_PERICENTER":"65.1270","EPHEMERIS_TYPE":"0","RCS_SIZE":"LARGE","DECAY_DATE":null,"APOAPSIS":"548.264","PERIOD":"95.592","MEAN_ELEMENT_THEORY":"SGP4","GP_ID":"215841713","RA_OF_ASC_NODE":"50.4517","OBJECT_TYPE":"PAYLOAD","REF_FRAME":"TEME","CLASSIFICATION_TYPE":"U","EPOCH":"2022-10-21T18:04:27.845184","MEAN_MOTION_DDOT":"0.0000000000000","FILE":"3628413","OBJECT_ID":"2021-021B","LAUNCH_DATE":"2021-03-14","COUNTRY_CODE":"US","SITE":"AFETR","ECCENTRICITY":"0.00015280","NORAD_CAT_ID":"47861","ELEMENT_SET_NO":"999","INCLINATION":"53.0544","REV_AT_EPOCH":"9013","TLE_LINE2":"2 47861  53.0544  50.4517 0001528  65.1270 294.9877 15.06402459 90133","CENTER_NAME":"EARTH","MEAN_MOTION_DOT":"-0.00000365","TIME_SYSTEM":"UTC","MEAN_MOTION":"15.06402459","PERIAPSIS":"546.148","SEMIMAJOR_AXIS":"6925.341"},{"DECAY_DATE":null,"APOAPSIS":"548.191","RCS_SIZE":"LARGE","EPHEMERIS_TYPE":"0","MEAN_ELEMENT_THEORY":"SGP4","PERIOD":"95.592","MEAN_ANOMALY":"289.2771","TLE_LINE1":"1 47862U 21021C   22294.66693912  .00001731  00000-0  13504-3 0  9992","BSTAR":"0.00013504000000","ARG_OF_PERICENTER":"70.8373","OBJECT_NAME":"STARLINK-2291","MEAN_MOTION_DDOT":"0.0000000000000","CLASSIFICATION_TYPE":"U","EPOCH":"2022-10-21T16:00:23.539968","FILE":"3628413","OBJECT_TYPE":"PAYLOAD","RA_OF_ASC_NODE":"45.8664","GP_ID":"215842465","REF_FRAME":"TEME","NORAD_CAT_ID":"47862","ELEMENT_SET_NO":"999","SITE":"AFETR","ECCENTRICITY":"0.00014360","INCLINATION":"53.0555","COUNTRY_CODE":"US","LAUNCH_DATE":"2021-03-14","OBJECT_ID":"2021-021C","MEAN_MOTION_DOT":"0.00001731","PERIAPSIS":"546.202","SEMIMAJOR_AXIS":"6925.332","MEAN_MOTION":"15.06405519","TIME_SYSTEM":"UTC","REV_AT_EPOCH":"9018","CENTER_NAME":"EARTH","TLE_LINE2":"2 47862  53.0555  45.8664 0001436  70.8373 289.2771 15.06405519 90187"},{"GP_ID":"215776406","OBJECT_TYPE":"PAYLOAD","RA_OF_ASC_NODE":"56.9377","REF_FRAME":"TEME","EPOCH":"2022-10-21T10:14:04.467840","CLASSIFICATION_TYPE":"U","MEAN_MOTION_DDOT":"0.0000000000000","FILE":"3627579","BSTAR":"0.00003896900000","TLE_LINE1":"1 47863U 21021D   22294.42644060  .00000299  00000-0  38969-4 0  9998","MEAN_ANOMALY":"275.7308","OBJECT_NAME":"STARLINK-2293","ARG_OF_PERICENTER":"84.3831","RCS_SIZE":"LARGE","EPHEMERIS_TYPE":"0","DECAY_DATE":null,"APOAPSIS":"548.148","PERIOD":"95.593","MEAN_ELEMENT_THEORY":"SGP4","REV_AT_EPOCH":"9001","TLE_LINE2":"2 47863  53.0548  56.9377 0001314  84.3831 275.7308 15.06391991 90014","CENTER_NAME":"EARTH","MEAN_MOTION_DOT":"0.00000299","TIME_SYSTEM":"UTC","PERIAPSIS":"546.328","MEAN_MOTION":"15.06391991","SEMIMAJOR_AXIS":"6925.373","OBJECT_ID":"2021-021D","LAUNCH_DATE":"2021-03-14","COUNTRY_CODE":"US","SITE":"AFETR","ECCENTRICITY":"0.00013140","NORAD_CAT_ID":"47863","ELEMENT_SET_NO":"999","INCLINATION":"53.0548"},{"SEMIMAJOR_AXIS":"6925.356","PERIAPSIS":"546.144","MEAN_MOTION":"15.06397734","TIME_SYSTEM":"UTC","MEAN_MOTION_DOT":"-0.00000484","CENTER_NAME":"EARTH","TLE_LINE2":"2 47864  53.0560  46.1854 0001555  74.5727 285.5434 15.06397734 90157","REV_AT_EPOCH":"9015","INCLINATION":"53.0560","SITE":"AFETR","ECCENTRICITY":"0.00015550","NORAD_CAT_ID":"47864","ELEMENT_SET_NO":"999","LAUNCH_DATE":"2021-03-14","COUNTRY_CODE":"US","OBJECT_ID":"2021-021E","FILE":"3628413","EPOCH":"2022-10-21T14:30:10.736352","CLASSIFICATION_TYPE":"U","MEAN_MOTION_DDOT":"0.0000000000000","REF_FRAME":"TEME","OBJECT_TYPE":"PAYLOAD","RA_OF_ASC_NODE":"46.1854","GP_ID":"215841964","MEAN_ELEMENT_THEORY":"SGP4","PERIOD":"95.592","DECAY_DATE":null,"APOAPSIS":"548.297","EPHEMERIS_TYPE":"0","RCS_SIZE":"LARGE","ARG_OF_PERICENTER":"74.5727","OBJECT_NAME":"STARLINK-2304","MEAN_ANOMALY":"285.5434","TLE_LINE1":"1 47864U 21021E   22294.60429093 -.00000484  00000-0 -13566-4 0  9990","BSTAR":"-0.00001356600000"}];
